COSMOS 2251 DEB         
1 33935U 93036EQ  17345.66864187  .00001220  00000-0  25288-3 0  9993
2 33935  74.0098  62.9967 0044456 211.1572 148.6958 14.60764662467341
